TISAT 1                 
1 36799U 10035E   26068.75703561  .00024554  00000+0  91005-3 0  9996
2 36799  98.0645   6.8512 0001343 159.3030 200.8262 15.27628633852505
STARLINK-36546          
1 67459U 26008Q   26068.46611758  .00024039  00000+0  87950-3 0  9996
2 67459  43.0026 206.8678 0003774 299.9737  60.0740 15.27603549  9538
